{"fetched_at":"2026-07-22T07:09:40.873Z","source":"https://celestrak.org/NORAD/elements/gp.php?NAME=FIREFLY&FORMAT=JSON","constellation":"pixxel","records":[{"OBJECT_NAME":"FIREFLY-1","OBJECT_ID":"2025-009CW","EPOCH":"2026-07-21T13:09:26.300448","CLASSIFICATION_TYPE":"U","MEAN_MOTION":14.92749829,"ECCENTRICITY":0.00031233,"INCLINATION":97.7057,"RA_OF_ASC_NODE":279.9642,"ARG_OF_PERICENTER":196.6139,"MEAN_ANOMALY":163.4979,"EPHEMERIS_TYPE":0,"NORAD_CAT_ID":62701,"ELEMENT_SET_NO":999,"REV_AT_EPOCH":8244,"BSTAR":0.00008780493,"MEAN_MOTION_DOT":0.00000851,"MEAN_MOTION_DDOT":0},{"OBJECT_NAME":"FIREFLY-2","OBJECT_ID":"2025-009CZ","EPOCH":"2026-07-21T14:14:10.205952","CLASSIFICATION_TYPE":"U","MEAN_MOTION":14.9274431,"ECCENTRICITY":0.00058384,"INCLINATION":97.7013,"RA_OF_ASC_NODE":279.7745,"ARG_OF_PERICENTER":340.8313,"MEAN_ANOMALY":19.2686,"EPHEMERIS_TYPE":0,"NORAD_CAT_ID":62704,"ELEMENT_SET_NO":999,"REV_AT_EPOCH":8245,"BSTAR":0.000054496947,"MEAN_MOTION_DOT":0.00000507,"MEAN_MOTION_DDOT":0},{"OBJECT_NAME":"FIREFLY-3","OBJECT_ID":"2025-009DF","EPOCH":"2026-07-21T15:18:47.361024","CLASSIFICATION_TYPE":"U","MEAN_MOTION":14.92809991,"ECCENTRICITY":0.00044674,"INCLINATION":97.7047,"RA_OF_ASC_NODE":280.0817,"ARG_OF_PERICENTER":58.315,"MEAN_ANOMALY":301.8505,"EPHEMERIS_TYPE":0,"NORAD_CAT_ID":62710,"ELEMENT_SET_NO":999,"REV_AT_EPOCH":8247,"BSTAR":0.000096666759,"MEAN_MOTION_DOT":0.00000944,"MEAN_MOTION_DDOT":0}]}
