{"epoch":1784710044,"count":18256,"objects":[{"id":"62701","name":"FIREFLY-1","type":"PAYLOAD","l1":"1 62701U 25009CW  26202.54822107  .00000851  00000-0  87805-4 0  9999","l2":"2 62701  97.7057 279.9642 0003123 196.6139 163.4979 14.92749829 82448"},{"id":"62704","name":"FIREFLY-2","type":"PAYLOAD","l1":"1 62704U 25009CZ  26202.59317368  .00000507  00000-0  54497-4 0  9994","l2":"2 62704  97.7013 279.7745 0005838 340.8313  19.2686 14.92744310 82451"},{"id":"62710","name":"FIREFLY-3","type":"PAYLOAD","l1":"1 62710U 25009DF  26202.63804816  .00000944  00000-0  96667-4 0  9995","l2":"2 62710  97.7047 280.0817 0004467  58.3150 301.8505 14.92809991 82476"}]}